0 FENGYUN 1C DEB
1 31654U 99025CBL 13281.29618366  .00007160  00000-0  17275-2 0  1686
2 31654 097.6082 300.0156 0282757 199.5934 159.3945 14.31880764332274
0 FENGYUN 1C DEB
1 31654U 99025CBL 13283.25285376  .00007266  00000-0  17522-2 0  1698
2 31654 097.6081 301.7341 0282659 193.7901 165.5644 14.31910600332557
0 FENGYUN 1C DEB
1 31654U 99025CBL 13284.30104697  .00007648  00000-0  18411-2 0  1705
2 31654 097.6080 302.6568 0282913 190.8660 168.7025 14.31931520332709
0 FENGYUN 1C DEB
1 31654U 99025CBL 13285.83836285  .00009348  00000-0  22130-2 0  1712
2 31654 097.6076 304.0150 0287488 185.0751 174.8828 14.31971040332920
0 FENGYUN 1C DEB
1 31654U 99025CBL 13286.81661340  .00009614  00000-0  22690-2 0  1727
2 31654 097.6087 304.8782 0288197 181.9813 178.0505 14.31992148333069
0 FENGYUN 1C DEB
1 31654U 99025CBL 13291.28855584  .00011553  00000-0  27484-2 0  1731
2 31654 097.6044 308.7895 0284514 169.3644 191.7962 14.32109614333700
0 FENGYUN 1C DEB
1 31654U 99025CBL 13293.24481599  .00012256  00000-0  28863-2 0  1744
2 31654 097.6088 310.5220 0287193 163.0286 198.1384 14.32162781333983
0 FENGYUN 1C DEB
1 31654U 99025CBL 13294.29281189  .00012514  00000-0  29615-2 0  1757
2 31654 097.6086 311.4399 0285423 159.8172 201.4525 14.32190754334133
0 FENGYUN 1C DEB
1 31654U 99025CBL 13295.27093423  .00012329  00000-0  29225-2 0  1760
2 31654 097.6063 312.2949 0284792 157.0077 204.3877 14.32212487334275
